SL-16 R/B               
1 25400U 98043G   26021.44126881  .00000150  00000+0  81721-4 0  9998
2 25400  98.8181 334.4929 0010362 146.2954 213.8886 14.26036510432255
SL-16 R/B               
1 25407U 98045B   26021.46083777  .00000360  00000+0  20573-3 0  9995
2 25407  71.0113 280.8958 0005218 101.3236 258.8474 14.16184331420416
ISS (ZARYA)             
1 25544U 98067A   26021.27150986  .00020903  00000+0  37939-3 0  9996
2 25544  51.6330 306.7706 0007779  41.9176 318.2407 15.49511068548986
CZ-4B R/B               
1 25732U 99025C   26021.38802150  .00000147  00000+0  91803-4 0  9998
2 25732  98.6713  66.7706 0038062 120.2849 250.7107 14.18254334381461
OKEAN-O                 
1 25860U 99039A   26020.99730522  .00001604  00000+0  21771-3 0  9999
2 25860  97.9541  81.3492 0001802 102.3879 257.7535 14.80243122427336
SL-16 R/B               
1 25861U 99039B   26021.42754939  .00001148  00000+0  15255-3 0  9990
2 25861  98.0064  80.5704 0015885  54.1278 306.1407 14.81653992429867
DELTA 2 R/B             
1 25876U 99041E   26021.50521206  .00004137  00000+0  70201-3 0  9990
2 25876  51.7630 129.6928 0503224 209.0199 148.1881 14.11594664356360
HELIOS 1B               
1 25977U 99064A   26021.42755745  .00003797  00000+0  42549-3 0  9990
2 25977  98.1740 282.2729 0001021 135.3215 224.8082 14.87474049678237
TERRA                   
1 25994U 99068A   26021.46921223  .00000946  00000+0  20212-3 0  9999
2 25994  97.9688  76.6845 0001902   6.0443 110.4889 14.60954774388189
SL-16 R/B               
1 26070U 00006B   26021.53459178  .00000013  00000+0  30956-4 0  9994
2 26070  71.0002 196.9847 0018764 255.0942 104.8103 14.15812620341885
TITAN 4B R/B            
1 26474U 00047B   26021.51423163  .00007452  00000+0  46916-3 0  9996
2 26474  67.9891 173.1213 0036848  94.7043 265.8316 15.09123141385799
ENVISAT                 
1 27386U 02009A   26021.47930536  .00000246  00000+0  93606-4 0  9994
2 27386  98.3655 336.2242 0001192  91.9527  19.6381 14.39016315252383
