CCSDS_OMM_VERS = 2.0
CREATION_DATE  = 
ORIGINATOR     = 

OBJECT_NAME    = SL-16 R/B
OBJECT_ID      = 1998-043G
CENTER_NAME    = EARTH
REF_FRAME      = TEME
TIME_SYSTEM    = UTC
MEAN_ELEMENT_THEORY = SGP/SGP4

EPOCH          = 2026-01-21T10:35:25.625184
MEAN_MOTION    = 14.26036510
ECCENTRICITY   = .0010362
INCLINATION    = 98.8181
RA_OF_ASC_NODE = 334.4929
ARG_OF_PERICENTER = 146.2954
MEAN_ANOMALY   = 213.8886

EPHEMERIS_TYPE = 0
CLASSIFICATION_TYPE = U
NORAD_CAT_ID   = 25400
ELEMENT_SET_NO = 999
REV_AT_EPOCH   = 43225
BSTAR          = .81721E-4
MEAN_MOTION_DOT = .15E-5
MEAN_MOTION_DDOT = 0

CCSDS_OMM_VERS = 2.0
CREATION_DATE  = 
ORIGINATOR     = 

OBJECT_NAME    = SL-16 R/B
OBJECT_ID      = 1998-045B
CENTER_NAME    = EARTH
REF_FRAME      = TEME
TIME_SYSTEM    = UTC
MEAN_ELEMENT_THEORY = SGP/SGP4

EPOCH          = 2026-01-21T11:03:36.383328
MEAN_MOTION    = 14.16184331
ECCENTRICITY   = .0005218
INCLINATION    = 71.0113
RA_OF_ASC_NODE = 280.8958
ARG_OF_PERICENTER = 101.3236
MEAN_ANOMALY   = 258.8474

EPHEMERIS_TYPE = 0
CLASSIFICATION_TYPE = U
NORAD_CAT_ID   = 25407
ELEMENT_SET_NO = 999
REV_AT_EPOCH   = 42041
BSTAR          = .20573E-3
MEAN_MOTION_DOT = .36E-5
MEAN_MOTION_DDOT = 0

CCSDS_OMM_VERS = 2.0
CREATION_DATE  = 
ORIGINATOR     = 

OBJECT_NAME    = ISS (ZARYA)
OBJECT_ID      = 1998-067A
CENTER_NAME    = EARTH
REF_FRAME      = TEME
TIME_SYSTEM    = UTC
MEAN_ELEMENT_THEORY = SGP/SGP4

EPOCH          = 2026-01-21T06:30:58.451904
MEAN_MOTION    = 15.49511068
ECCENTRICITY   = .0007779
INCLINATION    = 51.6330
RA_OF_ASC_NODE = 306.7706
ARG_OF_PERICENTER = 41.9176
MEAN_ANOMALY   = 318.2407

EPHEMERIS_TYPE = 0
CLASSIFICATION_TYPE = U
NORAD_CAT_ID   = 25544
ELEMENT_SET_NO = 999
REV_AT_EPOCH   = 54898
BSTAR          = .37939E-3
MEAN_MOTION_DOT = .20903E-3
MEAN_MOTION_DDOT = 0

CCSDS_OMM_VERS = 2.0
CREATION_DATE  = 
ORIGINATOR     = 

OBJECT_NAME    = CZ-4B R/B
OBJECT_ID      = 1999-025C
CENTER_NAME    = EARTH
REF_FRAME      = TEME
TIME_SYSTEM    = UTC
MEAN_ELEMENT_THEORY = SGP/SGP4

EPOCH          = 2026-01-21T09:18:45.057600
MEAN_MOTION    = 14.18254334
ECCENTRICITY   = .0038062
INCLINATION    = 98.6713
RA_OF_ASC_NODE = 66.7706
ARG_OF_PERICENTER = 120.2849
MEAN_ANOMALY   = 250.7107

EPHEMERIS_TYPE = 0
CLASSIFICATION_TYPE = U
NORAD_CAT_ID   = 25732
ELEMENT_SET_NO = 999
REV_AT_EPOCH   = 38146
BSTAR          = .91803E-4
MEAN_MOTION_DOT = .147E-5
MEAN_MOTION_DDOT = 0

CCSDS_OMM_VERS = 2.0
CREATION_DATE  = 
ORIGINATOR     = 

OBJECT_NAME    = OKEAN-O
OBJECT_ID      = 1999-039A
CENTER_NAME    = EARTH
REF_FRAME      = TEME
TIME_SYSTEM    = UTC
MEAN_ELEMENT_THEORY = SGP/SGP4

EPOCH          = 2026-01-20T23:56:07.171008
MEAN_MOTION    = 14.80243122
ECCENTRICITY   = .00018026
INCLINATION    = 97.9541
RA_OF_ASC_NODE = 81.3492
ARG_OF_PERICENTER = 102.3879
MEAN_ANOMALY   = 257.7535

EPHEMERIS_TYPE = 0
CLASSIFICATION_TYPE = U
NORAD_CAT_ID   = 25860
ELEMENT_SET_NO = 999
REV_AT_EPOCH   = 42733
BSTAR          = .21770717E-3
MEAN_MOTION_DOT = .1604E-4
MEAN_MOTION_DDOT = 0

CCSDS_OMM_VERS = 2.0
CREATION_DATE  = 
ORIGINATOR     = 

OBJECT_NAME    = SL-16 R/B
OBJECT_ID      = 1999-039B
CENTER_NAME    = EARTH
REF_FRAME      = TEME
TIME_SYSTEM    = UTC
MEAN_ELEMENT_THEORY = SGP/SGP4

EPOCH          = 2026-01-21T10:15:40.267296
MEAN_MOTION    = 14.81653992
ECCENTRICITY   = .0015885
INCLINATION    = 98.0064
RA_OF_ASC_NODE = 80.5704
ARG_OF_PERICENTER = 54.1278
MEAN_ANOMALY   = 306.1407

EPHEMERIS_TYPE = 0
CLASSIFICATION_TYPE = U
NORAD_CAT_ID   = 25861
ELEMENT_SET_NO = 999
REV_AT_EPOCH   = 42986
BSTAR          = .15255E-3
MEAN_MOTION_DOT = .1148E-4
MEAN_MOTION_DDOT = 0

CCSDS_OMM_VERS = 2.0
CREATION_DATE  = 
ORIGINATOR     = 

OBJECT_NAME    = DELTA 2 R/B
OBJECT_ID      = 1999-041E
CENTER_NAME    = EARTH
REF_FRAME      = TEME
TIME_SYSTEM    = UTC
MEAN_ELEMENT_THEORY = SGP/SGP4

EPOCH          = 2026-01-21T12:07:30.321984
MEAN_MOTION    = 14.11594664
ECCENTRICITY   = .0503224
INCLINATION    = 51.7630
RA_OF_ASC_NODE = 129.6928
ARG_OF_PERICENTER = 209.0199
MEAN_ANOMALY   = 148.1881

EPHEMERIS_TYPE = 0
CLASSIFICATION_TYPE = U
NORAD_CAT_ID   = 25876
ELEMENT_SET_NO = 999
REV_AT_EPOCH   = 35636
BSTAR          = .70201E-3
MEAN_MOTION_DOT = .4137E-4
MEAN_MOTION_DDOT = 0

CCSDS_OMM_VERS = 2.0
CREATION_DATE  = 
ORIGINATOR     = 

OBJECT_NAME    = HELIOS 1B
OBJECT_ID      = 1999-064A
CENTER_NAME    = EARTH
REF_FRAME      = TEME
TIME_SYSTEM    = UTC
MEAN_ELEMENT_THEORY = SGP/SGP4

EPOCH          = 2026-01-21T10:15:40.963680
MEAN_MOTION    = 14.87474049
ECCENTRICITY   = .0001021
INCLINATION    = 98.1740
RA_OF_ASC_NODE = 282.2729
ARG_OF_PERICENTER = 135.3215
MEAN_ANOMALY   = 224.8082

EPHEMERIS_TYPE = 0
CLASSIFICATION_TYPE = U
NORAD_CAT_ID   = 25977
ELEMENT_SET_NO = 999
REV_AT_EPOCH   = 67823
BSTAR          = .42549E-3
MEAN_MOTION_DOT = .3797E-4
MEAN_MOTION_DDOT = 0

CCSDS_OMM_VERS = 2.0
CREATION_DATE  = 
ORIGINATOR     = 

OBJECT_NAME    = TERRA
OBJECT_ID      = 1999-068A
CENTER_NAME    = EARTH
REF_FRAME      = TEME
TIME_SYSTEM    = UTC
MEAN_ELEMENT_THEORY = SGP/SGP4

EPOCH          = 2026-01-21T11:15:39.936672
MEAN_MOTION    = 14.60954774
ECCENTRICITY   = .0001902
INCLINATION    = 97.9688
RA_OF_ASC_NODE = 76.6845
ARG_OF_PERICENTER = 6.0443
MEAN_ANOMALY   = 110.4889

EPHEMERIS_TYPE = 0
CLASSIFICATION_TYPE = U
NORAD_CAT_ID   = 25994
ELEMENT_SET_NO = 999
REV_AT_EPOCH   = 38818
BSTAR          = .20212E-3
MEAN_MOTION_DOT = .946E-5
MEAN_MOTION_DDOT = 0

CCSDS_OMM_VERS = 2.0
CREATION_DATE  = 
ORIGINATOR     = 

OBJECT_NAME    = SL-16 R/B
OBJECT_ID      = 2000-006B
CENTER_NAME    = EARTH
REF_FRAME      = TEME
TIME_SYSTEM    = UTC
MEAN_ELEMENT_THEORY = SGP/SGP4

EPOCH          = 2026-01-21T12:49:48.729792
MEAN_MOTION    = 14.15812620
ECCENTRICITY   = .0018764
INCLINATION    = 71.0002
RA_OF_ASC_NODE = 196.9847
ARG_OF_PERICENTER = 255.0942
MEAN_ANOMALY   = 104.8103

EPHEMERIS_TYPE = 0
CLASSIFICATION_TYPE = U
NORAD_CAT_ID   = 26070
ELEMENT_SET_NO = 999
REV_AT_EPOCH   = 34188
BSTAR          = .30956E-4
MEAN_MOTION_DOT = .13E-6
MEAN_MOTION_DDOT = 0

CCSDS_OMM_VERS = 2.0
CREATION_DATE  = 
ORIGINATOR     = 

OBJECT_NAME    = TITAN 4B R/B
OBJECT_ID      = 2000-047B
CENTER_NAME    = EARTH
REF_FRAME      = TEME
TIME_SYSTEM    = UTC
MEAN_ELEMENT_THEORY = SGP/SGP4

EPOCH          = 2026-01-21T12:20:29.612832
MEAN_MOTION    = 15.09123141
ECCENTRICITY   = .0036848
INCLINATION    = 67.9891
RA_OF_ASC_NODE = 173.1213
ARG_OF_PERICENTER = 94.7043
MEAN_ANOMALY   = 265.8316

EPHEMERIS_TYPE = 0
CLASSIFICATION_TYPE = U
NORAD_CAT_ID   = 26474
ELEMENT_SET_NO = 999
REV_AT_EPOCH   = 38579
BSTAR          = .46916E-3
MEAN_MOTION_DOT = .7452E-4
MEAN_MOTION_DDOT = 0

CCSDS_OMM_VERS = 2.0
CREATION_DATE  = 
ORIGINATOR     = 

OBJECT_NAME    = ENVISAT
OBJECT_ID      = 2002-009A
CENTER_NAME    = EARTH
REF_FRAME      = TEME
TIME_SYSTEM    = UTC
MEAN_ELEMENT_THEORY = SGP/SGP4

EPOCH          = 2026-01-21T11:30:11.983104
MEAN_MOTION    = 14.39016315
ECCENTRICITY   = .0001192
INCLINATION    = 98.3655
RA_OF_ASC_NODE = 336.2242
ARG_OF_PERICENTER = 91.9527
MEAN_ANOMALY   = 19.6381

EPHEMERIS_TYPE = 0
CLASSIFICATION_TYPE = U
NORAD_CAT_ID   = 27386
ELEMENT_SET_NO = 999
REV_AT_EPOCH   = 25238
BSTAR          = .93606E-4
MEAN_MOTION_DOT = .246E-5
MEAN_MOTION_DDOT = 0

